STARLINK-36655          
1 67834U 26033P   26198.51832635  .00003169  00000+0  12463-3 0  9998
2 67834  42.9984 253.4984 0001458 287.3323  72.7369 15.27583285 24531
STARLINK-36657          
1 67835U 26033Q   26198.45935861 -.00001525  00000+0 -45903-4 0  9999
2 67835  42.9998 253.9106 0001477 279.5338  80.5347 15.27570616 24524
STARLINK-36650          
1 67836U 26033R   26198.49277249  .00005559  00000+0  21133-3 0  9990
2 67836  43.0007 254.1767 0001727 267.3901  92.6753 15.27586045 24521
STARLINK-36649          
1 67837U 26033S   26198.63384721  .00011546  00000+0  42847-3 0  9999
2 67837  42.9996 253.5142 0001676 282.6493  77.4171 15.27576841 24546
STARLINK-36654          
1 67838U 26033T   26198.48891897  .00004735  00000+0  18146-3 0  9997
2 67838  43.0029 254.1471 0001321 274.7317  85.3384 15.27580998 24522
STARLINK-36652          
1 67839U 26033U   26198.61583506  .00007365  00000+0  27685-3 0  9998
2 67839  43.0037 253.3822 0002409 284.7537  75.3048 15.27585775 24542
STARLINK-36651          
1 67840U 26033V   26198.48120605  .00004919  00000+0  18814-3 0  9998
2 67840  43.0039 254.0871 0001726 272.0914  87.9740 15.27584186 24529
STARLINK-36656          
1 67841U 26033W   26198.21323044  .00002588  00000+0  10352-3 0  9991
2 67841  43.0020 255.5122 0001381 250.2899 109.7804 15.27586235 24488
STARLINK-36653          
1 67842U 26033X   26198.47092566  .00003191  00000+0  12543-3 0  9997
2 67842  43.0011 254.0056 0001219 233.2294 126.8446 15.27581953 24528
STARLINK-36589          
1 67843U 26033Y   26198.46320375 -.00001974  00000+0 -62251-4 0  9990
2 67843  43.0012 253.9455 0000288 235.6272 124.4553 15.27584080 24525
STARLINK-36598          
1 67844U 26033Z   26198.50818075  .00010420  00000+0  38733-3 0  9996
2 67844  42.9987 254.2933 0001571 274.7750  85.2922 15.27606945 24520
STARLINK-36606          
1 67845U 26033AA  26198.52603448  .00006711  00000+0  25324-3 0  9995
2 67845  42.9989 253.5510 0001211 268.8395  91.2318 15.27571203 24531
STARLINK-36658          
1 67846U 26033AB  26198.56587150  .00007301  00000+0  27455-3 0  9994
2 67846  42.9989 253.8661 0001459 279.6314  80.4372 15.27581427 24536
STARLINK-36618          
1 67847U 26033AC  26198.44710470  .00003470  00000+0  13554-3 0  9993
2 67847  43.0000 239.6384 0002157 276.0209  84.0397 15.27582861 24683
STARLINK-36660          
1 67848U 26033AD  26198.56330378  .00009404  00000+0  35092-3 0  9996
2 67848  43.0007 253.8454 0002008 280.2295  79.8330 15.27571077 24534
STARLINK-36602          
1 67849U 26033AE  26198.44666391  .00003571  00000+0  13924-3 0  9990
2 67849  43.0015 254.6942 0000984 268.0604  92.0134 15.27577433 24513
STARLINK-36840          
1 67850U 26034A   26198.68957733  .00014594  00000+0  50378-3 0  9993
2 67850  53.1595 320.1173 0000895  60.3527 299.7563 15.30207673 23941
STARLINK-36348          
1 67851U 26034B   26198.91668981 -.00016229  00000+0 -47032-3 0  9996
2 67851  53.1597 319.4188 0001001  72.4571 282.7747 15.34394055  5877
STARLINK-36276          
1 67852U 26034C   26198.86966348  .00401533  00000+0  12585-1 0  9996
2 67852  53.1606 319.8271 0001755  59.6418 300.4757 15.30880611 23962
STARLINK-36785          
1 67853U 26034D   26198.84190835  .00013347  00000+0  40541-3 0  9992
2 67853  53.1594 319.6261 0001639  61.4567 298.6600 15.34404310 23960
STARLINK-36608          
1 67854U 26034E   26198.83392481  .00006605  00000+0  23493-3 0  9999
2 67854  53.1600 319.5698 0001010  74.7873 285.3240 15.30199384 23952
STARLINK-36838          
1 67855U 26034F   26198.72274567  .00028230  00000+0  91835-3 0  9995
2 67855  53.1619 319.5940 0002509  64.6216 295.5045 15.31687370 23950
STARLINK-36843          
1 67856U 26034G   26198.59691388  .00009088  00000+0  30415-3 0  9992
2 67856  53.1623 320.2488 0001449  61.4130 298.7018 15.31712036 23935
STARLINK-36828          
1 67857U 26034H   26198.72240616  .00006117  00000+0  20867-3 0  9992
2 67857  53.1581 319.5896 0001504  69.2916 290.8247 15.31704978 23958
STARLINK-36837          
1 67858U 26034J   26198.59982931  .00009289  00000+0  28569-3 0  9991
2 67858  53.1604 317.4296 0001058  76.3408 283.7712 15.34401971 23975
STARLINK-36393          
1 67859U 26034K   26198.73631217  .00005661  00000+0  19400-3 0  9990
2 67859  53.1601 318.9630 0000881  90.4691 269.6411 15.31709489 23965
STARLINK-35873          
1 67860U 26034L   26198.71584136  .00011883  00000+0  36221-3 0  9990
2 67860  53.1623 320.2605 0000767 148.0117 212.0932 15.34405116 23979
STARLINK-36325          
1 67861U 26034M   26198.91668981 -.00018358  00000+0 -53351-3 0  9993
2 67861  53.1596 319.4633 0001125  80.1240 240.2376 15.34399719  5877
STARLINK-36332          
1 67862U 26034N   26198.91668981 -.00016547  00000+0 -54772-3 0  9990
2 67862  53.1607 319.5719 0000958  79.6397 184.6932 15.30203606  5870
STARLINK-36835          
1 67863U 26034P   26198.60432356  .00009650  00000+0  33748-3 0  9997
2 67863  53.1618 320.9863 0001005  71.1992 288.9118 15.30202952 23924
